{
  "type": "FeatureCollection",
  "name": "Paris Coffee Places",
  "metadata": {
    "description": "100 coffee places in Paris — mix of well-known cafes and realistic synthetic samples.",
    "generated_at": "2026-05-22",
    "count": 100
  },
  "features": [
    {
      "type": "Feature",
      "id": 1,
      "geometry": {
        "type": "Point",
        "coordinates": [
          2.33333,
          48.8541
        ]
      },
      "properties": {
        "name": "Café de Flore",
        "address": "172 Bd Saint-Germain",
        "arrondissement": 6,
        "city": "Paris",
        "country": "France",
        "category": "coffee_shop",
        "source": "curated"
      }
    },
    {
      "type": "Feature",
      "id": 2,
      "geometry": {
        "type": "Point",
        "coordinates": [
          2.33333,
          48.85394
        ]
      },
      "properties": {
        "name": "Les Deux Magots",
        "address": "6 Place Saint-Germain des Prés",
        "arrondissement": 6,
        "city": "Paris",
        "country": "France",
        "category": "coffee_shop",
        "source": "curated"
      }
    },
    {
      "type": "Feature",
      "id": 3,
      "geometry": {
        "type": "Point",
        "coordinates": [
          2.3387,
          48.8537
        ]
      },
      "properties": {
        "name": "Café Procope",
        "address": "13 Rue de l'Ancienne Comédie",
        "arrondissement": 6,
        "city": "Paris",
        "country": "France",
        "category": "coffee_shop",
        "source": "curated"
      }
    },
    {
      "type": "Feature",
      "id": 4,
      "geometry": {
        "type": "Point",
        "coordinates": [
          2.33312,
          48.85388
        ]
      },
      "properties": {
        "name": "Brasserie Lipp",
        "address": "151 Bd Saint-Germain",
        "arrondissement": 6,
        "city": "Paris",
        "country": "France",
        "category": "coffee_shop",
        "source": "curated"
      }
    },
    {
      "type": "Feature",
      "id": 5,
      "geometry": {
        "type": "Point",
        "coordinates": [
          2.33536,
          48.84235
        ]
      },
      "properties": {
        "name": "La Closerie des Lilas",
        "address": "171 Bd du Montparnasse",
        "arrondissement": 6,
        "city": "Paris",
        "country": "France",
        "category": "coffee_shop",
        "source": "curated"
      }
    },
    {
      "type": "Feature",
      "id": 6,
      "geometry": {
        "type": "Point",
        "coordinates": [
          2.32894,
          48.84228
        ]
      },
      "properties": {
        "name": "Le Select",
        "address": "99 Bd du Montparnasse",
        "arrondissement": 6,
        "city": "Paris",
        "country": "France",
        "category": "coffee_shop",
        "source": "curated"
      }
    },
    {
      "type": "Feature",
      "id": 7,
      "geometry": {
        "type": "Point",
        "coordinates": [
          2.32978,
          48.8421
        ]
      },
      "properties": {
        "name": "La Rotonde",
        "address": "105 Bd du Montparnasse",
        "arrondissement": 14,
        "city": "Paris",
        "country": "France",
        "category": "coffee_shop",
        "source": "curated"
      }
    },
    {
      "type": "Feature",
      "id": 8,
      "geometry": {
        "type": "Point",
        "coordinates": [
          2.32988,
          48.84225
        ]
      },
      "properties": {
        "name": "Le Dôme Café",
        "address": "108 Bd du Montparnasse",
        "arrondissement": 14,
        "city": "Paris",
        "country": "France",
        "category": "coffee_shop",
        "source": "curated"
      }
    },
    {
      "type": "Feature",
      "id": 9,
      "geometry": {
        "type": "Point",
        "coordinates": [
          2.33232,
          48.87085
        ]
      },
      "properties": {
        "name": "Café de la Paix",
        "address": "5 Place de l'Opéra",
        "arrondissement": 9,
        "city": "Paris",
        "country": "France",
        "category": "coffee_shop",
        "source": "curated"
      }
    },
    {
      "type": "Feature",
      "id": 10,
      "geometry": {
        "type": "Point",
        "coordinates": [
          2.32847,
          48.8653
        ]
      },
      "properties": {
        "name": "Angelina",
        "address": "226 Rue de Rivoli",
        "arrondissement": 1,
        "city": "Paris",
        "country": "France",
        "category": "coffee_shop",
        "source": "curated"
      }
    },
    {
      "type": "Feature",
      "id": 11,
      "geometry": {
        "type": "Point",
        "coordinates": [
          2.335,
          48.86247
        ]
      },
      "properties": {
        "name": "Café Marly",
        "address": "93 Rue de Rivoli",
        "arrondissement": 1,
        "city": "Paris",
        "country": "France",
        "category": "coffee_shop",
        "source": "curated"
      }
    },
    {
      "type": "Feature",
      "id": 12,
      "geometry": {
        "type": "Point",
        "coordinates": [
          2.34125,
          48.85944
        ]
      },
      "properties": {
        "name": "Le Fumoir",
        "address": "6 Rue de l'Amiral de Coligny",
        "arrondissement": 1,
        "city": "Paris",
        "country": "France",
        "category": "coffee_shop",
        "source": "curated"
      }
    },
    {
      "type": "Feature",
      "id": 13,
      "geometry": {
        "type": "Point",
        "coordinates": [
          2.33621,
          48.86711
        ]
      },
      "properties": {
        "name": "Telescope Café",
        "address": "5 Rue Villedo",
        "arrondissement": 1,
        "city": "Paris",
        "country": "France",
        "category": "coffee_shop",
        "source": "curated"
      }
    },
    {
      "type": "Feature",
      "id": 14,
      "geometry": {
        "type": "Point",
        "coordinates": [
          2.31806,
          48.85178
        ]
      },
      "properties": {
        "name": "Coutume Café",
        "address": "47 Rue de Babylone",
        "arrondissement": 7,
        "city": "Paris",
        "country": "France",
        "category": "coffee_shop",
        "source": "curated"
      }
    },
    {
      "type": "Feature",
      "id": 15,
      "geometry": {
        "type": "Point",
        "coordinates": [
          2.35139,
          48.89187
        ]
      },
      "properties": {
        "name": "Café Lomi",
        "address": "3 Ter Rue Marcadet",
        "arrondissement": 18,
        "city": "Paris",
        "country": "France",
        "category": "coffee_shop",
        "source": "curated"
      }
    },
    {
      "type": "Feature",
      "id": 16,
      "geometry": {
        "type": "Point",
        "coordinates": [
          2.36637,
          48.87413
        ]
      },
      "properties": {
        "name": "Ten Belles",
        "address": "10 Rue de la Grange aux Belles",
        "arrondissement": 10,
        "city": "Paris",
        "country": "France",
        "category": "coffee_shop",
        "source": "curated"
      }
    },
    {
      "type": "Feature",
      "id": 17,
      "geometry": {
        "type": "Point",
        "coordinates": [
          2.38087,
          48.87694
        ]
      },
      "properties": {
        "name": "Belleville Brûlerie",
        "address": "10 Rue Pradier",
        "arrondissement": 19,
        "city": "Paris",
        "country": "France",
        "category": "coffee_shop",
        "source": "curated"
      }
    },
    {
      "type": "Feature",
      "id": 18,
      "geometry": {
        "type": "Point",
        "coordinates": [
          2.36502,
          48.86195
        ]
      },
      "properties": {
        "name": "Boot Café",
        "address": "19 Rue du Pont aux Choux",
        "arrondissement": 3,
        "city": "Paris",
        "country": "France",
        "category": "coffee_shop",
        "source": "curated"
      }
    },
    {
      "type": "Feature",
      "id": 19,
      "geometry": {
        "type": "Point",
        "coordinates": [
          2.36772,
          48.85798
        ]
      },
      "properties": {
        "name": "Fragments",
        "address": "76 Rue des Tournelles",
        "arrondissement": 3,
        "city": "Paris",
        "country": "France",
        "category": "coffee_shop",
        "source": "curated"
      }
    },
    {
      "type": "Feature",
      "id": 20,
      "geometry": {
        "type": "Point",
        "coordinates": [
          2.36115,
          48.87327
        ]
      },
      "properties": {
        "name": "Holybelly 5",
        "address": "5 Rue Lucien Sampaix",
        "arrondissement": 10,
        "city": "Paris",
        "country": "France",
        "category": "coffee_shop",
        "source": "curated"
      }
    },
    {
      "type": "Feature",
      "id": 21,
      "geometry": {
        "type": "Point",
        "coordinates": [
          2.36103,
          48.87358
        ]
      },
      "properties": {
        "name": "Holybelly 19",
        "address": "19 Rue Lucien Sampaix",
        "arrondissement": 10,
        "city": "Paris",
        "country": "France",
        "category": "coffee_shop",
        "source": "curated"
      }
    },
    {
      "type": "Feature",
      "id": 22,
      "geometry": {
        "type": "Point",
        "coordinates": [
          2.34141,
          48.8803
        ]
      },
      "properties": {
        "name": "KB Cafeshop",
        "address": "53 Avenue Trudaine",
        "arrondissement": 9,
        "city": "Paris",
        "country": "France",
        "category": "coffee_shop",
        "source": "curated"
      }
    },
    {
      "type": "Feature",
      "id": 23,
      "geometry": {
        "type": "Point",
        "coordinates": [
          2.35501,
          48.85626
        ]
      },
      "properties": {
        "name": "La Cafeothèque",
        "address": "52 Rue de l'Hôtel de Ville",
        "arrondissement": 4,
        "city": "Paris",
        "country": "France",
        "category": "coffee_shop",
        "source": "curated"
      }
    },
    {
      "type": "Feature",
      "id": 24,
      "geometry": {
        "type": "Point",
        "coordinates": [
          2.3559,
          48.86438
        ]
      },
      "properties": {
        "name": "Loustic",
        "address": "40 Rue Chapon",
        "arrondissement": 3,
        "city": "Paris",
        "country": "France",
        "category": "coffee_shop",
        "source": "curated"
      }
    },
    {
      "type": "Feature",
      "id": 25,
      "geometry": {
        "type": "Point",
        "coordinates": [
          2.35219,
          48.85076
        ]
      },
      "properties": {
        "name": "Strada Café",
        "address": "24 Rue Monge",
        "arrondissement": 5,
        "city": "Paris",
        "country": "France",
        "category": "coffee_shop",
        "source": "curated"
      }
    },
    {
      "type": "Feature",
      "id": 26,
      "geometry": {
        "type": "Point",
        "coordinates": [
          2.3175,
          48.87053
        ]
      },
      "properties": {
        "name": "Honor Café",
        "address": "54 Rue du Faubourg Saint-Honoré",
        "arrondissement": 8,
        "city": "Paris",
        "country": "France",
        "category": "coffee_shop",
        "source": "curated"
      }
    },
    {
      "type": "Feature",
      "id": 27,
      "geometry": {
        "type": "Point",
        "coordinates": [
          2.3381,
          48.86617
        ]
      },
      "properties": {
        "name": "Café Kitsuné",
        "address": "51 Galerie de Montpensier",
        "arrondissement": 1,
        "city": "Paris",
        "country": "France",
        "category": "coffee_shop",
        "source": "curated"
      }
    },
    {
      "type": "Feature",
      "id": 28,
      "geometry": {
        "type": "Point",
        "coordinates": [
          2.35198,
          48.85791
        ]
      },
      "properties": {
        "name": "Maison Aleph",
        "address": "20 Rue de la Verrerie",
        "arrondissement": 4,
        "city": "Paris",
        "country": "France",
        "category": "coffee_shop",
        "source": "curated"
      }
    },
    {
      "type": "Feature",
      "id": 29,
      "geometry": {
        "type": "Point",
        "coordinates": [
          2.35044,
          48.84287
        ]
      },
      "properties": {
        "name": "Dose Dealer de Café",
        "address": "73 Rue Mouffetard",
        "arrondissement": 5,
        "city": "Paris",
        "country": "France",
        "category": "coffee_shop",
        "source": "curated"
      }
    },
    {
      "type": "Feature",
      "id": 30,
      "geometry": {
        "type": "Point",
        "coordinates": [
          2.34812,
          48.86735
        ]
      },
      "properties": {
        "name": "L'Arbre à Café",
        "address": "10 Rue du Nil",
        "arrondissement": 2,
        "city": "Paris",
        "country": "France",
        "category": "coffee_shop",
        "source": "curated"
      }
    },
    {
      "type": "Feature",
      "id": 31,
      "geometry": {
        "type": "Point",
        "coordinates": [
          2.34636,
          48.86706
        ]
      },
      "properties": {
        "name": "Terres de Café",
        "address": "14 Rue d'Aboukir",
        "arrondissement": 2,
        "city": "Paris",
        "country": "France",
        "category": "coffee_shop",
        "source": "curated"
      }
    },
    {
      "type": "Feature",
      "id": 32,
      "geometry": {
        "type": "Point",
        "coordinates": [
          2.33329,
          48.86459
        ]
      },
      "properties": {
        "name": "Sébastien Gaudard",
        "address": "1 Rue des Pyramides",
        "arrondissement": 1,
        "city": "Paris",
        "country": "France",
        "category": "coffee_shop",
        "source": "curated"
      }
    },
    {
      "type": "Feature",
      "id": 33,
      "geometry": {
        "type": "Point",
        "coordinates": [
          2.28842,
          48.86347
        ]
      },
      "properties": {
        "name": "Carette",
        "address": "4 Place du Trocadéro",
        "arrondissement": 16,
        "city": "Paris",
        "country": "France",
        "category": "coffee_shop",
        "source": "curated"
      }
    },
    {
      "type": "Feature",
      "id": 34,
      "geometry": {
        "type": "Point",
        "coordinates": [
          2.34849,
          48.87266
        ]
      },
      "properties": {
        "name": "Pouliche",
        "address": "11 Rue d'Enghien",
        "arrondissement": 10,
        "city": "Paris",
        "country": "France",
        "category": "coffee_shop",
        "source": "curated"
      }
    },
    {
      "type": "Feature",
      "id": 35,
      "geometry": {
        "type": "Point",
        "coordinates": [
          2.301944,
          48.840892
        ]
      },
      "properties": {
        "name": "Maison République",
        "address": "174 Rue de Trévise",
        "arrondissement": 15,
        "city": "Paris",
        "country": "France",
        "category": "coffee_shop",
        "source": "synthetic"
      }
    },
    {
      "type": "Feature",
      "id": 36,
      "geometry": {
        "type": "Point",
        "coordinates": [
          2.385323,
          48.884148
        ]
      },
      "properties": {
        "name": "Café Passy",
        "address": "130 Avenue de Wagram",
        "arrondissement": 19,
        "city": "Paris",
        "country": "France",
        "category": "coffee_shop",
        "source": "synthetic"
      }
    },
    {
      "type": "Feature",
      "id": 37,
      "geometry": {
        "type": "Point",
        "coordinates": [
          2.358259,
          48.862061
        ]
      },
      "properties": {
        "name": "Chez Convention",
        "address": "151 Rue de Belleville",
        "arrondissement": 3,
        "city": "Paris",
        "country": "France",
        "category": "coffee_shop",
        "source": "synthetic"
      }
    },
    {
      "type": "Feature",
      "id": 38,
      "geometry": {
        "type": "Point",
        "coordinates": [
          2.308659,
          48.884434
        ]
      },
      "properties": {
        "name": "Cafétéria Sébastopol",
        "address": "40 Bd de Magenta",
        "arrondissement": 17,
        "city": "Paris",
        "country": "France",
        "category": "coffee_shop",
        "source": "synthetic"
      }
    },
    {
      "type": "Feature",
      "id": 39,
      "geometry": {
        "type": "Point",
        "coordinates": [
          2.404709,
          48.869182
        ]
      },
      "properties": {
        "name": "Le Châtelet",
        "address": "155 Rue de Ménilmontant",
        "arrondissement": 20,
        "city": "Paris",
        "country": "France",
        "category": "coffee_shop",
        "source": "synthetic"
      }
    },
    {
      "type": "Feature",
      "id": 40,
      "geometry": {
        "type": "Point",
        "coordinates": [
          2.306685,
          48.87291
        ]
      },
      "properties": {
        "name": "L'Atelier Vaugirard",
        "address": "161 Avenue Mac-Mahon",
        "arrondissement": 17,
        "city": "Paris",
        "country": "France",
        "category": "coffee_shop",
        "source": "synthetic"
      }
    },
    {
      "type": "Feature",
      "id": 41,
      "geometry": {
        "type": "Point",
        "coordinates": [
          2.39091,
          48.889698
        ]
      },
      "properties": {
        "name": "Le Passy",
        "address": "75 Rue du Temple",
        "arrondissement": 19,
        "city": "Paris",
        "country": "France",
        "category": "coffee_shop",
        "source": "synthetic"
      }
    },
    {
      "type": "Feature",
      "id": 42,
      "geometry": {
        "type": "Point",
        "coordinates": [
          2.356631,
          48.884667
        ]
      },
      "properties": {
        "name": "Le Petit Torréfacteur",
        "address": "42 Rue Saint-Martin",
        "arrondissement": 18,
        "city": "Paris",
        "country": "France",
        "category": "coffee_shop",
        "source": "synthetic"
      }
    },
    {
      "type": "Feature",
      "id": 43,
      "geometry": {
        "type": "Point",
        "coordinates": [
          2.384886,
          48.835779
        ]
      },
      "properties": {
        "name": "Le Bistrot Brews",
        "address": "163 Bd Voltaire",
        "arrondissement": 12,
        "city": "Paris",
        "country": "France",
        "category": "coffee_shop",
        "source": "synthetic"
      }
    },
    {
      "type": "Feature",
      "id": 44,
      "geometry": {
        "type": "Point",
        "coordinates": [
          2.327914,
          48.827151
        ]
      },
      "properties": {
        "name": "Brasserie Origine",
        "address": "57 Rue Caulaincourt",
        "arrondissement": 14,
        "city": "Paris",
        "country": "France",
        "category": "coffee_shop",
        "source": "synthetic"
      }
    },
    {
      "type": "Feature",
      "id": 45,
      "geometry": {
        "type": "Point",
        "coordinates": [
          2.403691,
          48.854428
        ]
      },
      "properties": {
        "name": "Café Grains",
        "address": "69 Rue Réaumur",
        "arrondissement": 12,
        "city": "Paris",
        "country": "France",
        "category": "coffee_shop",
        "source": "synthetic"
      }
    },
    {
      "type": "Feature",
      "id": 46,
      "geometry": {
        "type": "Point",
        "coordinates": [
          2.353333,
          48.883184
        ]
      },
      "properties": {
        "name": "Le Comptoir Madeleine",
        "address": "102 Rue Lepic",
        "arrondissement": 10,
        "city": "Paris",
        "country": "France",
        "category": "coffee_shop",
        "source": "synthetic"
      }
    },
    {
      "type": "Feature",
      "id": 47,
      "geometry": {
        "type": "Point",
        "coordinates": [
          2.36401,
          48.832472
        ]
      },
      "properties": {
        "name": "Chez Brews",
        "address": "110 Avenue Parmentier",
        "arrondissement": 13,
        "city": "Paris",
        "country": "France",
        "category": "coffee_shop",
        "source": "synthetic"
      }
    },
    {
      "type": "Feature",
      "id": 48,
      "geometry": {
        "type": "Point",
        "coordinates": [
          2.355788,
          48.839542
        ]
      },
      "properties": {
        "name": "Chez du Canal",
        "address": "29 Rue de la Roquette",
        "arrondissement": 13,
        "city": "Paris",
        "country": "France",
        "category": "coffee_shop",
        "source": "synthetic"
      }
    },
    {
      "type": "Feature",
      "id": 49,
      "geometry": {
        "type": "Point",
        "coordinates": [
          2.307353,
          48.827384
        ]
      },
      "properties": {
        "name": "Le Plaisance",
        "address": "136 Rue de Ménilmontant",
        "arrondissement": 15,
        "city": "Paris",
        "country": "France",
        "category": "coffee_shop",
        "source": "synthetic"
      }
    },
    {
      "type": "Feature",
      "id": 50,
      "geometry": {
        "type": "Point",
        "coordinates": [
          2.401622,
          48.875862
        ]
      },
      "properties": {
        "name": "Cafétéria Sentier",
        "address": "69 Rue Mouffetard",
        "arrondissement": 20,
        "city": "Paris",
        "country": "France",
        "category": "coffee_shop",
        "source": "synthetic"
      }
    },
    {
      "type": "Feature",
      "id": 51,
      "geometry": {
        "type": "Point",
        "coordinates": [
          2.301924,
          48.836772
        ]
      },
      "properties": {
        "name": "Le Petit Mouffetard",
        "address": "129 Rue de Maubeuge",
        "arrondissement": 15,
        "city": "Paris",
        "country": "France",
        "category": "coffee_shop",
        "source": "synthetic"
      }
    },
    {
      "type": "Feature",
      "id": 52,
      "geometry": {
        "type": "Point",
        "coordinates": [
          2.303945,
          48.880003
        ]
      },
      "properties": {
        "name": "Brasserie Origine 8e",
        "address": "156 Bd de Strasbourg",
        "arrondissement": 8,
        "city": "Paris",
        "country": "France",
        "category": "coffee_shop",
        "source": "synthetic"
      }
    },
    {
      "type": "Feature",
      "id": 53,
      "geometry": {
        "type": "Point",
        "coordinates": [
          2.309702,
          48.862312
        ]
      },
      "properties": {
        "name": "Le Coin Espresso",
        "address": "154 Rue Saint-Denis",
        "arrondissement": 8,
        "city": "Paris",
        "country": "France",
        "category": "coffee_shop",
        "source": "synthetic"
      }
    },
    {
      "type": "Feature",
      "id": 54,
      "geometry": {
        "type": "Point",
        "coordinates": [
          2.329353,
          48.830549
        ]
      },
      "properties": {
        "name": "Le Coin du Canal",
        "address": "62 Avenue Daumesnil",
        "arrondissement": 14,
        "city": "Paris",
        "country": "France",
        "category": "coffee_shop",
        "source": "synthetic"
      }
    },
    {
      "type": "Feature",
      "id": 55,
      "geometry": {
        "type": "Point",
        "coordinates": [
          2.400982,
          48.859908
        ]
      },
      "properties": {
        "name": "Le Origine",
        "address": "33 Rue de Charonne",
        "arrondissement": 20,
        "city": "Paris",
        "country": "France",
        "category": "coffee_shop",
        "source": "synthetic"
      }
    },
    {
      "type": "Feature",
      "id": 56,
      "geometry": {
        "type": "Point",
        "coordinates": [
          2.278668,
          48.870539
        ]
      },
      "properties": {
        "name": "Chez Grains",
        "address": "55 Avenue de la République",
        "arrondissement": 16,
        "city": "Paris",
        "country": "France",
        "category": "coffee_shop",
        "source": "synthetic"
      }
    },
    {
      "type": "Feature",
      "id": 57,
      "geometry": {
        "type": "Point",
        "coordinates": [
          2.246426,
          48.857007
        ]
      },
      "properties": {
        "name": "L'Atelier Torréfacteur",
        "address": "113 Rue Lecourbe",
        "arrondissement": 16,
        "city": "Paris",
        "country": "France",
        "category": "coffee_shop",
        "source": "synthetic"
      }
    },
    {
      "type": "Feature",
      "id": 58,
      "geometry": {
        "type": "Point",
        "coordinates": [
          2.358952,
          48.839473
        ]
      },
      "properties": {
        "name": "Café Roastery",
        "address": "151 Bd de Sébastopol",
        "arrondissement": 13,
        "city": "Paris",
        "country": "France",
        "category": "coffee_shop",
        "source": "synthetic"
      }
    },
    {
      "type": "Feature",
      "id": 59,
      "geometry": {
        "type": "Point",
        "coordinates": [
          2.337563,
          48.865247
        ]
      },
      "properties": {
        "name": "Le Torréfacteur",
        "address": "19 Rue de la Roquette",
        "arrondissement": 1,
        "city": "Paris",
        "country": "France",
        "category": "coffee_shop",
        "source": "synthetic"
      }
    },
    {
      "type": "Feature",
      "id": 60,
      "geometry": {
        "type": "Point",
        "coordinates": [
          2.388691,
          48.861501
        ]
      },
      "properties": {
        "name": "La Brews",
        "address": "148 Rue d'Alésia",
        "arrondissement": 11,
        "city": "Paris",
        "country": "France",
        "category": "coffee_shop",
        "source": "synthetic"
      }
    },
    {
      "type": "Feature",
      "id": 61,
      "geometry": {
        "type": "Point",
        "coordinates": [
          2.383722,
          48.853012
        ]
      },
      "properties": {
        "name": "Le Voltaire",
        "address": "91 Rue du Bac",
        "arrondissement": 11,
        "city": "Paris",
        "country": "France",
        "category": "coffee_shop",
        "source": "synthetic"
      }
    },
    {
      "type": "Feature",
      "id": 62,
      "geometry": {
        "type": "Point",
        "coordinates": [
          2.361404,
          48.847841
        ]
      },
      "properties": {
        "name": "Le Bistrot Latte",
        "address": "16 Rue de Vaugirard",
        "arrondissement": 13,
        "city": "Paris",
        "country": "France",
        "category": "coffee_shop",
        "source": "synthetic"
      }
    },
    {
      "type": "Feature",
      "id": 63,
      "geometry": {
        "type": "Point",
        "coordinates": [
          2.273094,
          48.874236
        ]
      },
      "properties": {
        "name": "Maison Convention",
        "address": "36 Rue du Bac",
        "arrondissement": 16,
        "city": "Paris",
        "country": "France",
        "category": "coffee_shop",
        "source": "synthetic"
      }
    },
    {
      "type": "Feature",
      "id": 64,
      "geometry": {
        "type": "Point",
        "coordinates": [
          2.333926,
          48.880451
        ]
      },
      "properties": {
        "name": "Le Filles du Calvaire",
        "address": "26 Rue de Turbigo",
        "arrondissement": 9,
        "city": "Paris",
        "country": "France",
        "category": "coffee_shop",
        "source": "synthetic"
      }
    },
    {
      "type": "Feature",
      "id": 65,
      "geometry": {
        "type": "Point",
        "coordinates": [
          2.26328,
          48.874468
        ]
      },
      "properties": {
        "name": "Le Roastery",
        "address": "43 Rue de Sèvres",
        "arrondissement": 16,
        "city": "Paris",
        "country": "France",
        "category": "coffee_shop",
        "source": "synthetic"
      }
    },
    {
      "type": "Feature",
      "id": 66,
      "geometry": {
        "type": "Point",
        "coordinates": [
          2.329731,
          48.828491
        ]
      },
      "properties": {
        "name": "Café du Marais",
        "address": "100 Rue de Ménilmontant",
        "arrondissement": 14,
        "city": "Paris",
        "country": "France",
        "category": "coffee_shop",
        "source": "synthetic"
      }
    },
    {
      "type": "Feature",
      "id": 67,
      "geometry": {
        "type": "Point",
        "coordinates": [
          2.395613,
          48.88434
        ]
      },
      "properties": {
        "name": "Cafétéria Origine",
        "address": "170 Rue Cadet",
        "arrondissement": 19,
        "city": "Paris",
        "country": "France",
        "category": "coffee_shop",
        "source": "synthetic"
      }
    },
    {
      "type": "Feature",
      "id": 68,
      "geometry": {
        "type": "Point",
        "coordinates": [
          2.331561,
          48.834041
        ]
      },
      "properties": {
        "name": "Café Origine",
        "address": "16 Rue de Trévise",
        "arrondissement": 14,
        "city": "Paris",
        "country": "France",
        "category": "coffee_shop",
        "source": "synthetic"
      }
    },
    {
      "type": "Feature",
      "id": 69,
      "geometry": {
        "type": "Point",
        "coordinates": [
          2.398834,
          48.837044
        ]
      },
      "properties": {
        "name": "Chez Bonne Nouvelle",
        "address": "21 Bd Beaumarchais",
        "arrondissement": 12,
        "city": "Paris",
        "country": "France",
        "category": "coffee_shop",
        "source": "synthetic"
      }
    },
    {
      "type": "Feature",
      "id": 70,
      "geometry": {
        "type": "Point",
        "coordinates": [
          2.34848,
          48.845987
        ]
      },
      "properties": {
        "name": "L'Atelier Quai de Loire",
        "address": "64 Avenue Parmentier",
        "arrondissement": 5,
        "city": "Paris",
        "country": "France",
        "category": "coffee_shop",
        "source": "synthetic"
      }
    },
    {
      "type": "Feature",
      "id": 71,
      "geometry": {
        "type": "Point",
        "coordinates": [
          2.306563,
          48.829399
        ]
      },
      "properties": {
        "name": "L'Étoile Torréfacteur",
        "address": "67 Bd de Magenta",
        "arrondissement": 15,
        "city": "Paris",
        "country": "France",
        "category": "coffee_shop",
        "source": "synthetic"
      }
    },
    {
      "type": "Feature",
      "id": 72,
      "geometry": {
        "type": "Point",
        "coordinates": [
          2.271937,
          48.859722
        ]
      },
      "properties": {
        "name": "La Beans",
        "address": "118 Rue Saint-Denis",
        "arrondissement": 16,
        "city": "Paris",
        "country": "France",
        "category": "coffee_shop",
        "source": "synthetic"
      }
    },
    {
      "type": "Feature",
      "id": 73,
      "geometry": {
        "type": "Point",
        "coordinates": [
          2.384587,
          48.90043
        ]
      },
      "properties": {
        "name": "L'Étoile Latte",
        "address": "19 Avenue de la République",
        "arrondissement": 19,
        "city": "Paris",
        "country": "France",
        "category": "coffee_shop",
        "source": "synthetic"
      }
    },
    {
      "type": "Feature",
      "id": 74,
      "geometry": {
        "type": "Point",
        "coordinates": [
          2.358264,
          48.880419
        ]
      },
      "properties": {
        "name": "Le Torréfacteur 10e",
        "address": "73 Bd Voltaire",
        "arrondissement": 10,
        "city": "Paris",
        "country": "France",
        "category": "coffee_shop",
        "source": "synthetic"
      }
    },
    {
      "type": "Feature",
      "id": 75,
      "geometry": {
        "type": "Point",
        "coordinates": [
          2.367708,
          48.828256
        ]
      },
      "properties": {
        "name": "Le Coin Espresso 13e",
        "address": "171 Avenue Jean Jaurès",
        "arrondissement": 13,
        "city": "Paris",
        "country": "France",
        "category": "coffee_shop",
        "source": "synthetic"
      }
    },
    {
      "type": "Feature",
      "id": 76,
      "geometry": {
        "type": "Point",
        "coordinates": [
          2.393132,
          48.853048
        ]
      },
      "properties": {
        "name": "La République",
        "address": "142 Rue de la Roquette",
        "arrondissement": 12,
        "city": "Paris",
        "country": "France",
        "category": "coffee_shop",
        "source": "synthetic"
      }
    },
    {
      "type": "Feature",
      "id": 77,
      "geometry": {
        "type": "Point",
        "coordinates": [
          2.370808,
          48.857606
        ]
      },
      "properties": {
        "name": "Maison Beans",
        "address": "130 Rue de la Convention",
        "arrondissement": 11,
        "city": "Paris",
        "country": "France",
        "category": "coffee_shop",
        "source": "synthetic"
      }
    },
    {
      "type": "Feature",
      "id": 78,
      "geometry": {
        "type": "Point",
        "coordinates": [
          2.383054,
          48.870154
        ]
      },
      "properties": {
        "name": "Le Bistrot Sébastopol",
        "address": "12 Rue de Rivoli",
        "arrondissement": 11,
        "city": "Paris",
        "country": "France",
        "category": "coffee_shop",
        "source": "synthetic"
      }
    },
    {
      "type": "Feature",
      "id": 79,
      "geometry": {
        "type": "Point",
        "coordinates": [
          2.397728,
          48.845269
        ]
      },
      "properties": {
        "name": "La Origine",
        "address": "110 Avenue Jean Jaurès",
        "arrondissement": 12,
        "city": "Paris",
        "country": "France",
        "category": "coffee_shop",
        "source": "synthetic"
      }
    },
    {
      "type": "Feature",
      "id": 80,
      "geometry": {
        "type": "Point",
        "coordinates": [
          2.334948,
          48.861643
        ]
      },
      "properties": {
        "name": "La Torréfacteur",
        "address": "150 Avenue Jean Jaurès",
        "arrondissement": 1,
        "city": "Paris",
        "country": "France",
        "category": "coffee_shop",
        "source": "synthetic"
      }
    },
    {
      "type": "Feature",
      "id": 81,
      "geometry": {
        "type": "Point",
        "coordinates": [
          2.315455,
          48.870952
        ]
      },
      "properties": {
        "name": "Le Coin Espresso 8e",
        "address": "92 Bd de Magenta",
        "arrondissement": 8,
        "city": "Paris",
        "country": "France",
        "category": "coffee_shop",
        "source": "synthetic"
      }
    },
    {
      "type": "Feature",
      "id": 82,
      "geometry": {
        "type": "Point",
        "coordinates": [
          2.274473,
          48.85119
        ]
      },
      "properties": {
        "name": "Chez Grains 16e",
        "address": "159 Rue de Trévise",
        "arrondissement": 16,
        "city": "Paris",
        "country": "France",
        "category": "coffee_shop",
        "source": "synthetic"
      }
    },
    {
      "type": "Feature",
      "id": 83,
      "geometry": {
        "type": "Point",
        "coordinates": [
          2.303564,
          48.879776
        ]
      },
      "properties": {
        "name": "Le Coin Grains",
        "address": "7 Bd Beaumarchais",
        "arrondissement": 8,
        "city": "Paris",
        "country": "France",
        "category": "coffee_shop",
        "source": "synthetic"
      }
    },
    {
      "type": "Feature",
      "id": 84,
      "geometry": {
        "type": "Point",
        "coordinates": [
          2.257652,
          48.870064
        ]
      },
      "properties": {
        "name": "Le Coin Roastery",
        "address": "69 Bd Voltaire",
        "arrondissement": 16,
        "city": "Paris",
        "country": "France",
        "category": "coffee_shop",
        "source": "synthetic"
      }
    },
    {
      "type": "Feature",
      "id": 85,
      "geometry": {
        "type": "Point",
        "coordinates": [
          2.306648,
          48.886759
        ]
      },
      "properties": {
        "name": "Le Petit Plaisance",
        "address": "90 Rue du Sentier",
        "arrondissement": 17,
        "city": "Paris",
        "country": "France",
        "category": "coffee_shop",
        "source": "synthetic"
      }
    },
    {
      "type": "Feature",
      "id": 86,
      "geometry": {
        "type": "Point",
        "coordinates": [
          2.322003,
          48.886382
        ]
      },
      "properties": {
        "name": "Le Bistrot Glacière",
        "address": "72 Rue Réaumur",
        "arrondissement": 17,
        "city": "Paris",
        "country": "France",
        "category": "coffee_shop",
        "source": "synthetic"
      }
    },
    {
      "type": "Feature",
      "id": 87,
      "geometry": {
        "type": "Point",
        "coordinates": [
          2.395645,
          48.858997
        ]
      },
      "properties": {
        "name": "L'Atelier Origine",
        "address": "85 Rue Saint-Honoré",
        "arrondissement": 20,
        "city": "Paris",
        "country": "France",
        "category": "coffee_shop",
        "source": "synthetic"
      }
    },
    {
      "type": "Feature",
      "id": 88,
      "geometry": {
        "type": "Point",
        "coordinates": [
          2.321049,
          48.860962
        ]
      },
      "properties": {
        "name": "Brasserie Voltaire",
        "address": "89 Rue Lafayette",
        "arrondissement": 7,
        "city": "Paris",
        "country": "France",
        "category": "coffee_shop",
        "source": "synthetic"
      }
    },
    {
      "type": "Feature",
      "id": 89,
      "geometry": {
        "type": "Point",
        "coordinates": [
          2.308458,
          48.892671
        ]
      },
      "properties": {
        "name": "Le Quai de Loire",
        "address": "49 Rue de Ménilmontant",
        "arrondissement": 17,
        "city": "Paris",
        "country": "France",
        "category": "coffee_shop",
        "source": "synthetic"
      }
    },
    {
      "type": "Feature",
      "id": 90,
      "geometry": {
        "type": "Point",
        "coordinates": [
          2.356993,
          48.849276
        ]
      },
      "properties": {
        "name": "Le Coin Roastery 4e",
        "address": "94 Rue du Bac",
        "arrondissement": 4,
        "city": "Paris",
        "country": "France",
        "category": "coffee_shop",
        "source": "synthetic"
      }
    },
    {
      "type": "Feature",
      "id": 91,
      "geometry": {
        "type": "Point",
        "coordinates": [
          2.356851,
          48.840922
        ]
      },
      "properties": {
        "name": "Le Comptoir Latte",
        "address": "77 Rue de la Roquette",
        "arrondissement": 5,
        "city": "Paris",
        "country": "France",
        "category": "coffee_shop",
        "source": "synthetic"
      }
    },
    {
      "type": "Feature",
      "id": 92,
      "geometry": {
        "type": "Point",
        "coordinates": [
          2.404453,
          48.831399
        ]
      },
      "properties": {
        "name": "Brasserie Roastery",
        "address": "108 Rue des Abbesses",
        "arrondissement": 12,
        "city": "Paris",
        "country": "France",
        "category": "coffee_shop",
        "source": "synthetic"
      }
    },
    {
      "type": "Feature",
      "id": 93,
      "geometry": {
        "type": "Point",
        "coordinates": [
          2.394345,
          48.872179
        ]
      },
      "properties": {
        "name": "L'Étoile Grains",
        "address": "141 Rue de Rivoli",
        "arrondissement": 20,
        "city": "Paris",
        "country": "France",
        "category": "coffee_shop",
        "source": "synthetic"
      }
    },
    {
      "type": "Feature",
      "id": 94,
      "geometry": {
        "type": "Point",
        "coordinates": [
          2.391517,
          48.841573
        ]
      },
      "properties": {
        "name": "L'Étoile Brûlerie",
        "address": "114 Rue de Rennes",
        "arrondissement": 12,
        "city": "Paris",
        "country": "France",
        "category": "coffee_shop",
        "source": "synthetic"
      }
    },
    {
      "type": "Feature",
      "id": 95,
      "geometry": {
        "type": "Point",
        "coordinates": [
          2.24913,
          48.864328
        ]
      },
      "properties": {
        "name": "Le Coin Latte",
        "address": "73 Rue de la Roquette",
        "arrondissement": 16,
        "city": "Paris",
        "country": "France",
        "category": "coffee_shop",
        "source": "synthetic"
      }
    },
    {
      "type": "Feature",
      "id": 96,
      "geometry": {
        "type": "Point",
        "coordinates": [
          2.270306,
          48.873193
        ]
      },
      "properties": {
        "name": "Le Coin Daumesnil",
        "address": "58 Bd de Strasbourg",
        "arrondissement": 16,
        "city": "Paris",
        "country": "France",
        "category": "coffee_shop",
        "source": "synthetic"
      }
    },
    {
      "type": "Feature",
      "id": 97,
      "geometry": {
        "type": "Point",
        "coordinates": [
          2.312009,
          48.874087
        ]
      },
      "properties": {
        "name": "L'Étoile Latte 8e",
        "address": "117 Rue de Sèvres",
        "arrondissement": 8,
        "city": "Paris",
        "country": "France",
        "category": "coffee_shop",
        "source": "synthetic"
      }
    },
    {
      "type": "Feature",
      "id": 98,
      "geometry": {
        "type": "Point",
        "coordinates": [
          2.373947,
          48.885014
        ]
      },
      "properties": {
        "name": "L'Atelier Charonne",
        "address": "38 Rue Lepic",
        "arrondissement": 19,
        "city": "Paris",
        "country": "France",
        "category": "coffee_shop",
        "source": "synthetic"
      }
    },
    {
      "type": "Feature",
      "id": 99,
      "geometry": {
        "type": "Point",
        "coordinates": [
          2.247638,
          48.872649
        ]
      },
      "properties": {
        "name": "Le Roastery 16e",
        "address": "46 Rue des Martyrs",
        "arrondissement": 16,
        "city": "Paris",
        "country": "France",
        "category": "coffee_shop",
        "source": "synthetic"
      }
    },
    {
      "type": "Feature",
      "id": 100,
      "geometry": {
        "type": "Point",
        "coordinates": [
          2.328826,
          48.833012
        ]
      },
      "properties": {
        "name": "Le Plaisance 14e",
        "address": "171 Rue Lecourbe",
        "arrondissement": 14,
        "city": "Paris",
        "country": "France",
        "category": "coffee_shop",
        "source": "synthetic"
      }
    }
  ]
}